{"fetched_at":"2026-07-18T06:27:45.816Z","source":"https://celestrak.org/NORAD/elements/gp.php?GROUP=oneweb&FORMAT=JSON","constellation":"oneweb","records":[{"OBJECT_NAME":"ONEWEB-0205","OBJECT_ID":"2021-031S","EPOCH":"2026-07-17T15:51:49.667328","CLASSIFICATION_TYPE":"U","MEAN_MOTION":13.14502608,"ECCENTRICITY":0.00023166,"INCLINATION":87.8973,"RA_OF_ASC_NODE":283.6275,"ARG_OF_PERICENTER":94.6628,"MEAN_ANOMALY":265.4767,"EPHEMERIS_TYPE":0,"NORAD_CAT_ID":48226,"ELEMENT_SET_NO":999,"REV_AT_EPOCH":25227,"BSTAR":-0.00031440255,"MEAN_MOTION_DOT":-0.00000104,"MEAN_MOTION_DDOT":0},{"OBJECT_NAME":"ONEWEB-0206","OBJECT_ID":"2021-031T","EPOCH":"2026-07-17T22:31:26.740416","CLASSIFICATION_TYPE":"U","MEAN_MOTION":13.14501814,"ECCENTRICITY":0.00019377,"INCLINATION":87.8974,"RA_OF_ASC_NODE":283.5722,"ARG_OF_PERICENTER":100.176,"MEAN_ANOMALY":259.9588,"EPHEMERIS_TYPE":0,"NORAD_CAT_ID":48227,"ELEMENT_SET_NO":999,"REV_AT_EPOCH":25226,"BSTAR":-0.00024610222,"MEAN_MOTION_DOT":-7.8e-7,"MEAN_MOTION_DDOT":0},{"OBJECT_NAME":"ONEWEB-0182","OBJECT_ID":"2021-031U","EPOCH":"2026-07-17T22:24:34.634880","CLASSIFICATION_TYPE":"U","MEAN_MOTION":13.14504209,"ECCENTRICITY":0.00018891,"INCLINATION":87.8967,"RA_OF_ASC_NODE":283.58,"ARG_OF_PERICENTER":94.4929,"MEAN_ANOMALY":265.6417,"EPHEMERIS_TYPE":0,"NORAD_CAT_ID":48228,"ELEMENT_SET_NO":999,"REV_AT_EPOCH":25247,"BSTAR":0.00021372553,"MEAN_MOTION_DOT":9.2e-7,"MEAN_MOTION_DDOT":0},{"OBJECT_NAME":"ONEWEB-0186","OBJECT_ID":"2021-031V","EPOCH":"2026-07-17T22:40:34.637376","CLASSIFICATION_TYPE":"U","MEAN_MOTION":13.14502856,"ECCENTRICITY":0.00021301,"INCLINATION":87.8978,"RA_OF_ASC_NODE":283.571,"ARG_OF_PERICENTER":95.984,"MEAN_ANOMALY":264.1532,"EPHEMERIS_TYPE":0,"NORAD_CAT_ID":48229,"ELEMENT_SET_NO":999,"REV_AT_EPOCH":25242,"BSTAR":-0.0004261038,"MEAN_MOTION_DOT":-0.00000145,"MEAN_MOTION_DDOT":0},{"OBJECT_NAME":"ONEWEB-0181","OBJECT_ID":"2021-031W","EPOCH":"2026-07-17T18:29:22.669728","CLASSIFICATION_TYPE":"U","MEAN_MOTION":13.1450204,"ECCENTRICITY":0.00022433,"INCLINATION":87.8956,"RA_OF_ASC_NODE":283.6302,"ARG_OF_PERICENTER":97.3676,"MEAN_ANOMALY":262.7709,"EPHEMERIS_TYPE":0,"NORAD_CAT_ID":48230,"ELEMENT_SET_NO":999,"REV_AT_EPOCH":25225,"BSTAR":0.00037630802,"MEAN_MOTION_DOT":0.00000152,"MEAN_MOTION_DDOT":0},{"OBJECT_NAME":"ONEWEB-0188","OBJECT_ID":"2021-031X","EPOCH":"2026-07-17T15:44:58.373088","CLASSIFICATION_TYPE":"U","MEAN_MOTION":13.14502399,"ECCENTRICITY":0.00020835,"INCLINATION":87.896,"RA_OF_ASC_NODE":283.6523,"ARG_OF_PERICENTER":97.2,"MEAN_ANOMALY":262.9366,"EPHEMERIS_TYPE":0,"NORAD_CAT_ID":48231,"ELEMENT_SET_NO":999,"REV_AT_EPOCH":25214,"BSTAR":-0.00044325858,"MEAN_MOTION_DOT":-0.00000152,"MEAN_MOTION_DDOT":0},{"OBJECT_NAME":"ONEWEB-0220","OBJECT_ID":"2021-031Y","EPOCH":"2026-07-17T18:31:42.751776","CLASSIFICATION_TYPE":"U","MEAN_MOTION":13.14493916,"ECCENTRICITY":0.00021734,"INCLINATION":87.8977,"RA_OF_ASC_NODE":283.6067,"ARG_OF_PERICENTER":91.6003,"MEAN_ANOMALY":268.5376,"EPHEMERIS_TYPE":0,"NORAD_CAT_ID":48232,"ELEMENT_SET_NO":999,"REV_AT_EPOCH":25242,"BSTAR":0.00056425644,"MEAN_MOTION_DOT":0.00000222,"MEAN_MOTION_DDOT":0},{"OBJECT_NAME":"ONEWEB-0165","OBJECT_ID":"2021-031Z","EPOCH":"2026-07-17T04:35:54.035232","CLASSIFICATION_TYPE":"U","MEAN_MOTION":13.14503942,"ECCENTRICITY":0.00024531,"INCLINATION":87.8968,"RA_OF_ASC_NODE":283.7332,"ARG_OF_PERICENTER":100.6362,"MEAN_ANOMALY":259.5044,"EPHEMERIS_TYPE":0,"NORAD_CAT_ID":48233,"ELEMENT_SET_NO":999,"REV_AT_EPOCH":25230,"BSTAR":-0.00050262391,"MEAN_MOTION_DOT":-0.00000174,"MEAN_MOTION_DDOT":0},{"OBJECT_NAME":"ONEWEB-0199","OBJECT_ID":"2021-031AA","EPOCH":"2026-07-17T18:49:56.947296","CLASSIFICATION_TYPE":"U","MEAN_MOTION":13.14501825,"ECCENTRICITY":0.00018731,"INCLINATION":87.8975,"RA_OF_ASC_NODE":283.6026,"ARG_OF_PERICENTER":101.3647,"MEAN_ANOMALY":258.7693,"EPHEMERIS_TYPE":0,"NORAD_CAT_ID":48234,"ELEMENT_SET_NO":999,"REV_AT_EPOCH":25228,"BSTAR":0.000029827352,"MEAN_MOTION_DOT":2.4e-7,"MEAN_MOTION_DDOT":0},{"OBJECT_NAME":"ONEWEB-0203","OBJECT_ID":"2021-031AB","EPOCH":"2026-07-17T22:15:27.948384","CLASSIFICATION_TYPE":"U","MEAN_MOTION":13.14502258,"ECCENTRICITY":0.00020946,"INCLINATION":87.8973,"RA_OF_ASC_NODE":283.5771,"ARG_OF_PERICENTER":104.5601,"MEAN_ANOMALY":255.5761,"EPHEMERIS_TYPE":0,"NORAD_CAT_ID":48235,"ELEMENT_SET_NO":999,"REV_AT_EPOCH":25231,"BSTAR":0.00047927922,"MEAN_MOTION_DOT":0.0000019,"MEAN_MOTION_DDOT":0},{"OBJECT_NAME":"ONEWEB-0197","OBJECT_ID":"2021-031AC","EPOCH":"2026-07-17T12:30:40.375296","CLASSIFICATION_TYPE":"U","MEAN_MOTION":13.14502707,"ECCENTRICITY":0.0001972,"INCLINATION":87.8962,"RA_OF_ASC_NODE":283.6416,"ARG_OF_PERICENTER":92.4161,"MEAN_ANOMALY":267.7195,"EPHEMERIS_TYPE":0,"NORAD_CAT_ID":48236,"ELEMENT_SET_NO":999,"REV_AT_EPOCH":25217,"BSTAR":0.00044988,"MEAN_MOTION_DOT":0.0000018,"MEAN_MOTION_DDOT":0},{"OBJECT_NAME":"ONEWEB-0194","OBJECT_ID":"2021-031AD","EPOCH":"2026-07-17T15:40:23.723040","CLASSIFICATION_TYPE":"U","MEAN_MOTION":13.14504093,"ECCENTRICITY":0.00019666,"INCLINATION":87.8969,"RA_OF_ASC_NODE":283.6391,"ARG_OF_PERICENTER":104.9134,"MEAN_ANOMALY":255.2213,"EPHEMERIS_TYPE":0,"NORAD_CAT_ID":48237,"ELEMENT_SET_NO":999,"REV_AT_EPOCH":25236,"BSTAR":-0.00055606974,"MEAN_MOTION_DOT":-0.00000193,"MEAN_MOTION_DDOT":0},{"OBJECT_NAME":"ONEWEB-0193","OBJECT_ID":"2021-031AE","EPOCH":"2026-07-17T16:03:15.032736","CLASSIFICATION_TYPE":"U","MEAN_MOTION":13.14502758,"ECCENTRICITY":0.00018543,"INCLINATION":87.8965,"RA_OF_ASC_NODE":283.6259,"ARG_OF_PERICENTER":110.9669,"MEAN_ANOMALY":249.1659,"EPHEMERIS_TYPE":0,"NORAD_CAT_ID":48238,"ELEMENT_SET_NO":999,"REV_AT_EPOCH":25231,"BSTAR":-0.000007500368,"MEAN_MOTION_DOT":1e-7,"MEAN_MOTION_DDOT":0},{"OBJECT_NAME":"ONEWEB-0191","OBJECT_ID":"2021-031AF","EPOCH":"2026-07-17T16:19:12.309312","CLASSIFICATION_TYPE":"U","MEAN_MOTION":13.14506652,"ECCENTRICITY":0.00019217,"INCLINATION":87.8974,"RA_OF_ASC_NODE":283.6244,"ARG_OF_PERICENTER":95.7615,"MEAN_ANOMALY":264.3734,"EPHEMERIS_TYPE":0,"NORAD_CAT_ID":48239,"ELEMENT_SET_NO":999,"REV_AT_EPOCH":25217,"BSTAR":0.00050362837,"MEAN_MOTION_DOT":0.000002,"MEAN_MOTION_DDOT":0},{"OBJECT_NAME":"ONEWEB-0195","OBJECT_ID":"2021-031AG","EPOCH":"2026-07-17T15:46:08.687136","CLASSIFICATION_TYPE":"U","MEAN_MOTION":13.14485196,"ECCENTRICITY":0.00023355,"INCLINATION":87.897,"RA_OF_ASC_NODE":283.6289,"ARG_OF_PERICENTER":97.8757,"MEAN_ANOMALY":262.2638,"EPHEMERIS_TYPE":0,"NORAD_CAT_ID":48240,"ELEMENT_SET_NO":999,"REV_AT_EPOCH":25215,"BSTAR":-0.0067477775,"MEAN_MOTION_DOT":-0.00002488,"MEAN_MOTION_DDOT":0},{"OBJECT_NAME":"ONEWEB-0201","OBJECT_ID":"2021-031AH","EPOCH":"2026-07-17T22:47:37.175712","CLASSIFICATION_TYPE":"U","MEAN_MOTION":13.1450284,"ECCENTRICITY":0.0002002,"INCLINATION":87.8967,"RA_OF_ASC_NODE":283.5848,"ARG_OF_PERICENTER":90.1467,"MEAN_ANOMALY":269.9892,"EPHEMERIS_TYPE":0,"NORAD_CAT_ID":48241,"ELEMENT_SET_NO":999,"REV_AT_EPOCH":25242,"BSTAR":-0.00026701802,"MEAN_MOTION_DOT":-8.6e-7,"MEAN_MOTION_DDOT":0}]}
