ONEWEB-0205             
1 48226U 21031S   26198.66099152 -.00000104  00000+0 -31440-3 0  9994
2 48226  87.8973 283.6275 0002316  94.6628 265.4767 13.14502608252271
ONEWEB-0206             
1 48227U 21031T   26198.93850394 -.00000078  00000+0 -24610-3 0  9999
2 48227  87.8974 283.5722 0001937 100.1760 259.9588 13.14501814252263
ONEWEB-0182             
1 48228U 21031U   26198.93373420  .00000092  00000+0  21373-3 0  9997
2 48228  87.8967 283.5800 0001889  94.4929 265.6417 13.14504209252470
ONEWEB-0186             
1 48229U 21031V   26198.94484534 -.00000145  00000+0 -42610-3 0  9996
2 48229  87.8978 283.5710 0002130  95.9840 264.1532 13.14502856252424
ONEWEB-0181             
1 48230U 21031W   26198.77040127  .00000152  00000+0  37631-3 0  9998
2 48230  87.8956 283.6302 0002243  97.3676 262.7709 13.14502040252254
ONEWEB-0188             
1 48231U 21031X   26198.65623117 -.00000152  00000+0 -44326-3 0  9993
2 48231  87.8960 283.6523 0002083  97.2000 262.9366 13.14502399252143
ONEWEB-0220             
1 48232U 21031Y   26198.77202259  .00000222  00000+0  56426-3 0  9997
2 48232  87.8977 283.6067 0002173  91.6003 268.5376 13.14493916252424
ONEWEB-0165             
1 48233U 21031Z   26198.19159763 -.00000174  00000+0 -50262-3 0  9995
2 48233  87.8968 283.7332 0002453 100.6362 259.5044 13.14503942252301
ONEWEB-0199             
1 48234U 21031AA  26198.78468689  .00000024  00000+0  29827-4 0  9997
2 48234  87.8975 283.6026 0001873 101.3647 258.7693 13.14501825252284
ONEWEB-0203             
1 48235U 21031AB  26198.92740681  .00000190  00000+0  47928-3 0  9994
2 48235  87.8973 283.5771 0002094 104.5601 255.5761 13.14502258252316
ONEWEB-0197             
1 48236U 21031AC  26198.52130064  .00000180  00000+0  44988-3 0  9991
2 48236  87.8962 283.6416 0001972  92.4161 267.7195 13.14502707252171
ONEWEB-0194             
1 48237U 21031AD  26198.65305235 -.00000193  00000+0 -55607-3 0  9996
2 48237  87.8969 283.6391 0001966 104.9134 255.2213 13.14504093252367
ONEWEB-0193             
1 48238U 21031AE  26198.66892399  .00000010  00000+0 -75004-5 0  9992
2 48238  87.8965 283.6259 0001854 110.9669 249.1659 13.14502758252310
ONEWEB-0191             
1 48239U 21031AF  26198.68000358  .00000200  00000+0  50363-3 0  9990
2 48239  87.8974 283.6244 0001921  95.7615 264.3734 13.14506652252175
ONEWEB-0195             
1 48240U 21031AG  26198.65704499 -.00002488  00000+0 -67478-2 0  9992
2 48240  87.8970 283.6289 0002335  97.8757 262.2638 13.14485196252159
ONEWEB-0201             
1 48241U 21031AH  26198.94973583 -.00000086  00000+0 -26702-3 0  9995
2 48241  87.8967 283.5848 0002002  90.1467 269.9892 13.14502840252423
